#dP2022 11 16 18  0  0.00000000      96 __u+U ITR00 EXT  IAC
## 2236 324000.00000000   900.00000000 59899 0.7500000000000
+  116   C06C07C08C09C10C11C12C13C14C16C19C20C21C22C23C24C25
+        C26C27C28C29C30C32C33C34C35C36C37C38C39C40C41C42C43
+        C44C45C46E01E02E03E04E05E08E09E10E11E12E13E14E15E18
+        E19E21E24E25E26E27E30E31E33E34E36G01G02G03G04G05G06
+        G07G08G09G10G11G12G13G14G15G16G17G18G19G20G21G22G23
+        G24G25G26G27G29G30G31G32J02J03J04R01R02R03R04R05R07
+        R08R09R11R12R13R14R15R17R18R19R20R21R22R24  0  0  0
++        10  9  9  9 10  9  8  8 10 10  8  8  8  8  9 10  7
++         9  7  9  7  7  9  9  9  8  9  7 10  9 10  8  8  8
++         8  7  9  8  9  7  7  8  6  6  8  8  7  6  8  6  7
++         8  8  8  7  8  6  7  8  5  7  8  7  8  6  6  6  7
++         8  7  5  6  7  8  7  6  8  7  6  8  7  7  7  6  7
++         8  8  7  7  8  7  7  7  9  9  8  8  7  8  8  8  7
++         7 10  9  9  8  8  9  8  9  8  8  9  8  9  0  0  0
%c M  cc GPS ccc cccc cccc cccc cccc ccccc ccccc ccccc ccccc
%c cc cc ccc ccc cccc cccc cccc cccc ccccc ccccc ccccc ccccc
%f  0.0000000  0.000000000  0.00000000000  0.000000000000000
%f  0.0000000  0.000000000  0.00000000000  0.000000000000000
%i    0    0    0    0      0      0      0      0         0
%i    0    0    0    0      0      0      0      0         0
/* IAC                                ULTRA-RAPID PREDICTION
/* S/V CLOCKS ARE ALIGNED TO GNSS TIME                      
/* G:C1WC2W R:C1PC2P E:C1XC5X C:C2IC6I J:C1CC2S             
/* PCV:IGS14_2233 OL/AL:FES2004  NONE     YN ORB:CoN CLK:CoN
*  2022 11 16 23 45  0.00000000
PC06 -15771.754399  37954.047734  -9967.339210     -0.672833
PC07  -2538.269224  33671.851701 -25123.630867    204.215304
PC08 -12561.333756  19685.034271  35075.221767    512.681067
PC09 -10331.642277  36851.558955 -17872.410486   -805.438225
PC10   4641.557885  36323.129022 -20183.642930     67.100750
PC11 -18111.312937   6931.822230 -19979.966723   -288.319564
PC12 -10653.678132 -12328.398253 -22612.744636    304.714883
PC13  -2070.273807  22178.789385  35931.522816    135.118137
PC14 -19170.332349  -3024.418515  20081.297348    659.170594
PC16 -19519.206706  37220.696995  -4740.427107    115.864923
PC19  14299.523678  -6951.547907 -22916.053026   -913.424729
PC20  20643.942762  10849.125175 -15305.672770    835.166142
PC21 -14967.470326 -23465.540074  -2125.548033   -837.452540
PC22   -569.880058 -21612.721511 -17662.558962   -789.889755
PC23  -9585.955013  15932.644749 -20802.790024   -877.095001
PC24 -25752.244847  -4578.775523   9669.850250   -797.588154
PC25 -24663.514342   9426.866750  -9004.246080     25.739443
PC26 -12850.200550 -13481.551149  20756.318034    -36.916705
PC27   5037.414395  19949.162334  18840.903439     52.453901
PC28  -8560.242472  26104.041351   4893.311740     36.801421
PC29  17379.478853 -17384.628073  13208.865416     41.474838
PC30  16058.827915   2576.446720  22672.118686      0.988701
PC32  15072.415535  23376.843613   2245.083892   -715.616755
PC33 -14368.464429   6930.415549  22894.029179   -910.494230
PC34 -16530.030228  -1271.941624 -22456.402994     40.888638
PC35   8683.914020 -26288.395407  -3376.808786     91.502583
PC36  25216.195756  -8495.154157   8452.948360   -835.754391
PC37  11189.679120  14234.278903 -21230.251108   -862.689581
PC38 -20411.144762  20388.637972  30707.552158     38.641991
PC39 -19962.102308  37265.576068      1.347025     -0.865197
PC40  -6447.916448  29265.987710 -29580.154341     -8.240849
PC41     92.876216  21333.159360  18035.980784   -283.426188
PC42 -20763.846855 -11895.036232  14405.026200   -677.168575
PC43 -17665.761116  16660.384415 -13772.615616     25.363916
PC44  -5748.372706 -19920.027991 -18672.774858    116.140792
PC45   9225.989031 -15877.791884  21019.710883    -23.287812
PC46  26519.807572   3341.277889  -8099.406243    -13.466009
PE01 -27489.646033 -10329.574646  -3663.448274   -567.283438
PE02  27535.224571  10175.799313   3894.627225      3.036821
PE03  16928.852548   7813.170700 -22999.172439   -620.683393
PE04 -14165.002536  14238.893804  21742.368273  -1160.104115
PE05   9788.929772  25791.018532 -10741.576528   -123.951522
PE08  14008.009678 -14258.253728 -21842.333870   -633.524626
PE09  -2952.548870  28398.212678   7785.419391   -731.678498
PE10 -20356.472433  20177.358778   7364.683718   -491.320875
PE11 -11900.667213  21442.405722  16575.030199   1294.152724
PE12 -24963.414290  15767.775759  -2155.429047   -280.844087
PE13  12708.389248 -21469.308638 -15923.667924    430.589873
PE14  -1563.694866 -30784.192914  -3849.883513     58.685317
PE15  25006.365149 -15651.567108   2462.283241    706.976729
PE18  -5637.714291  24389.873655  -4700.750548   -734.830663
PE19 -16365.932768 -10837.762858  22151.517184  -3978.265006
PE21 -18542.736233 -18832.873219  13323.793097   -495.047106
PE24  -2788.372730  16985.806850 -24093.015832   -951.326786
PE25  18310.263403  18898.987307 -13557.161301   -592.834624
PE26  -7826.841360 -14241.109403 -24732.715245  -1853.411447
PE27   1692.144603 -17302.041859  23961.132845   -441.301557
PE30  21317.518293  -4971.924331  19929.334038  -1004.244232
PE31 -20708.451676   5605.555795 -20379.381600   -508.351621
PE33 -22464.057154    646.689227 -19256.068451   -455.508947
PE34  22564.705306   -839.406825  19146.853251    -14.966842
PE36   6916.281995  14640.376514  24785.309623   -461.892070
PG01   6411.298284 -17804.308228 -18798.180489    250.763666
PG02  -2532.450612  18354.223509  19736.998212   -637.517350
PG03  -2715.075038 -17248.261136 -20171.140615   -373.078368
PG04    788.384756 -26492.365060    -24.660147    -85.171100
PG05 -11007.283997  11028.761252  21348.579804   -104.568146
PG06 -23286.350633   4218.408806 -12067.379351    519.887354
PG07  -9804.849113 -12334.848727  21830.180450    286.529286
PG08   6787.534368 -23128.757323  10682.890384    -94.147912
PG09  -8054.567065 -22955.195918  10527.775706   -267.605344
PG10  24035.468854  11251.820459  -3053.445163    -12.201909
PG11 -23743.889191  11846.229921   -506.560130    -40.894521
PG12    703.911329  17359.007377 -20389.351587   -305.092221
PG13 -12885.835063  17187.821051  15320.708999    425.868252
PG14 -23107.805219 -13156.423780  -1320.321770    -82.017390
PG15  -4006.866899  24016.798216   9814.147911    -11.811656
PG16  16417.213612  -5393.685655  20016.154672   -526.879487
PG17 -12561.053146 -12087.289472 -19574.874804    678.498938
PG18  11158.977694  10644.419901  21641.465766    -24.632061
PG19 -15046.447188    -54.458766 -22109.719961    238.320249
PG20 -21458.355657   3641.698613  15083.494963    469.595202
PG21  13736.795131 -19043.372528 -11029.072875    155.904256
PG22  15069.287809  -3598.697548 -21132.345789    366.031423
PG23  19727.923542  16268.402854   7435.636688     -0.974053
PG24  -8888.630382  19943.578604 -15162.981482     55.969264
PG25  12243.381641  18775.728401 -14755.464344    393.304327
PG26  23484.244106   1224.888513  12563.816196    235.999010
PG27  12607.622966 -13722.157298  18544.819245    176.322680
PG29   4568.738924  24384.244037   9329.810071   -567.694256
PG30 -19799.322237  -3627.162500  17542.501825   -536.627234
PG31  24153.416437  -4694.904841 -10732.541833   -200.402221
PG32  14496.422271   8480.511367 -20471.112818   -298.599463
PJ02 -26243.333009  16285.445108 -24077.460974     -0.135754
PJ03 -26466.691035  32438.549708   -771.249534     -4.776315
PJ04 -26616.823914  26042.218079  25824.016694    113.155923
PR01  14461.786704  18607.210454  -9761.820976     18.007844
PR02  12437.747137   2195.340595 -22137.859738    -23.315962
PR03   3614.496959 -14972.808345 -20274.626887     67.426223
PR04  -7028.762518 -23415.927919  -7225.064588    165.186719
PR05 -13730.403942 -19118.115299   9797.405243    103.041347
PR07  -3127.685390  15666.577663  19936.671564     44.462725
PR08   7144.918092  23448.269248   7172.640885    -68.112457
PR09 -25041.841414    873.068772  -4963.091800     87.992357
PR11   3181.390247  11035.654973 -22764.331046     20.267706
PR12  20908.495344   7663.697497 -12433.897744     22.937734
PR13  25279.618296    135.780633   3407.814762    -28.948779
PR14  14507.882459  -8262.443066  19290.996288     24.127076
PR15  -4216.444015 -11204.946577  22542.991848     92.786094
PR17  15171.641557 -20506.409274   1123.698516    578.766535
PR18   6098.294947 -19805.760726 -14821.665425     52.363512
PR19  -5008.915466 -10147.199435 -22855.789228   -211.217425
PR20 -16375.681958   8489.342567 -17622.587984    -82.257477
PR21 -14657.909839  20847.435781    576.413837   -350.255303
PR22  -6068.796841  19480.652898  15344.600788     16.040838
PR24  16566.921968  -9291.218256  17059.861131    126.976391
EOF
